RS-44
1 44909U 19096E   22286.32466658  .00000032  00000-0  78937-4 0  9994
2 44909  82.5212 151.9890 0218208  44.3125 317.5214 12.79715794130583
FO-29
1 24278U 96046B   22286.29764434 -.00000012  00000-0  25817-4 0  9998
2 24278  98.5152 293.7651 0349928 337.6777  20.9444 13.53122298291543
ISS
1 25544U 98067A   22286.96885661  .00014431  00000-0  26019-3 0  9993
2 25544  51.6411 108.1076 0003461 301.0291 217.5930 15.50016527363600
SO-50
1 27607U 02058C   22286.46834340  .00001488  00000-0  22286-3 0  9993
2 27607  64.5550 300.7142 0081666 271.9818  87.1934 14.76315971 65792
IO-86
1 40931U 15052B   22286.49730258  .00001444  00000-0  11125-3 0  9994
2 40931   5.9958  46.9622 0013734  38.5723 321.5399 14.76887187380820
UVSQ-SAT
1 47438U 21006AB  22286.40752760  .00010304  00000-0  52271-3 0  9994
2 47438  97.4235 343.0073 0010598 219.0358 141.0112 15.17071493 95157
HO-113
1 50466U 21131B   22286.83477281  .00000433  00000-0  15619-3 0  9994
2 50466  98.5732   3.9904 0005352 147.3078 212.8442 14.38546964 41937